start=new Date('2022-12-10T00:00:00.000Z').valueOf();
sats=[{"GP_ID":"219856263","SEMIMAJOR_AXIS":"6925.406","SITE":"AFETR","PERIOD":"95.593","TIME_SYSTEM":"UTC","EPHEMERIS_TYPE":"0","ECCENTRICITY":"0.00013280","CLASSIFICATION_TYPE":"U","MEAN_ANOMALY":"290.5045","LAUNCH_DATE":"2021-03-24","BSTAR":"-0.00034264000000","TLE_LINE2":"2 47993  53.0521 220.0940 0001328  69.6086 290.5045 15.06381172 95863","RCS_SIZE":"LARGE","FILE":"3685769","TLE_LINE1":"1 47993U 21024S   22343.84336300 -.00005379  00000-0 -34264-3 0  9990","APOAPSIS":"548.191","EPOCH":"2022-12-09T20:14:26.563200","ELEMENT_SET_NO":"999","MEAN_MOTION":"15.06381172","MEAN_ELEMENT_THEORY":"SGP4","COUNTRY_CODE":"US","CENTER_NAME":"EARTH","ARG_OF_PERICENTER":"69.6086","DECAY_DATE":null,"MEAN_MOTION_DOT":"-0.00005379","OBJECT_NAME":"STARLINK-2273","OBJECT_TYPE":"PAYLOAD","NORAD_CAT_ID":"47993","MEAN_MOTION_DDOT":"0.0000000000000","RA_OF_ASC_NODE":"220.0940","REF_FRAME":"TEME","INCLINATION":"53.0521","OBJECT_ID":"2021-024S","REV_AT_EPOCH":"9586","PERIAPSIS":"546.352"},{"MEAN_ANOMALY":"344.2878","FILE":"3685769","RCS_SIZE":"LARGE","EPOCH":"2022-12-09T20:20:25.625184","TLE_LINE1":"1 47994U 21024T   22343.84751881  .00005770  00000-0  40629-3 0  9991","APOAPSIS":"547.593","LAUNCH_DATE":"2021-03-24","TLE_LINE2":"2 47994  53.0556 235.0805 0000380  15.8122 344.2878 15.06362085 95659","BSTAR":"0.00040629000000","SITE":"AFETR","GP_ID":"219856425","SEMIMAJOR_AXIS":"6925.465","TIME_SYSTEM":"UTC","CLASSIFICATION_TYPE":"U","ECCENTRICITY":"0.00003800","EPHEMERIS_TYPE":"0","PERIOD":"95.595","INCLINATION":"53.0556","REF_FRAME":"TEME","REV_AT_EPOCH":"9565","PERIAPSIS":"547.067","OBJECT_ID":"2021-024T","ARG_OF_PERICENTER":"15.8122","DECAY_DATE":null,"MEAN_MOTION_DOT":"0.00005770","ELEMENT_SET_NO":"999","MEAN_MOTION":"15.06362085","CENTER_NAME":"EARTH","COUNTRY_CODE":"US","MEAN_ELEMENT_THEORY":"SGP4","MEAN_MOTION_DDOT":"0.0000000000000","RA_OF_ASC_NODE":"235.0805","NORAD_CAT_ID":"47994","OBJECT_TYPE":"PAYLOAD","OBJECT_NAME":"STARLINK-2290"},{"SITE":"AFETR","GP_ID":"219856277","SEMIMAJOR_AXIS":"6925.455","TIME_SYSTEM":"UTC","EPHEMERIS_TYPE":"0","ECCENTRICITY":"0.00012820","CLASSIFICATION_TYPE":"U","PERIOD":"95.594","MEAN_ANOMALY":"33.3124","RCS_SIZE":"LARGE","FILE":"3685772","TLE_LINE1":"1 47995U 21024U   22343.79000215 -.00025696  00000-0 -17140-2 0  9996","EPOCH":"2022-12-09T18:57:36.185760","APOAPSIS":"548.208","LAUNCH_DATE":"2021-03-24","TLE_LINE2":"2 47995  53.0545 200.6445 0001282 326.7784  33.3124 15.06365340 96137","BSTAR":"-0.00171400000000","DECAY_DATE":null,"ARG_OF_PERICENTER":"326.7784","MEAN_MOTION_DOT":"-0.00025696","ELEMENT_SET_NO":"999","MEAN_MOTION":"15.06365340","MEAN_ELEMENT_THEORY":"SGP4","CENTER_NAME":"EARTH","COUNTRY_CODE":"US","OBJECT_TYPE":"PAYLOAD","NORAD_CAT_ID":"47995","RA_OF_ASC_NODE":"200.6445","MEAN_MOTION_DDOT":"0.0000000000000","OBJECT_NAME":"STARLINK-2309","REF_FRAME":"TEME","INCLINATION":"53.0545","REV_AT_EPOCH":"9613","PERIAPSIS":"546.432","OBJECT_ID":"2021-024U"},{"MEAN_MOTION_DOT":"-0.00001612","DECAY_DATE":null,"ARG_OF_PERICENTER":"41.5777","CENTER_NAME":"EARTH","COUNTRY_CODE":"US","MEAN_ELEMENT_THEORY":"SGP4","ELEMENT_SET_NO":"999","MEAN_MOTION":"15.06393817","MEAN_MOTION_DDOT":"0.0000000000000","RA_OF_ASC_NODE":"125.7478","NORAD_CAT_ID":"47996","OBJECT_TYPE":"PAYLOAD","OBJECT_NAME":"STARLINK-2260","INCLINATION":"53.0540","REF_FRAME":"TEME","PERIAPSIS":"545.708","REV_AT_EPOCH":"9718","OBJECT_ID":"2021-024V","SITE":"AFETR","SEMIMAJOR_AXIS":"6925.368","GP_ID":"219856282","ECCENTRICITY":"0.00022010","CLASSIFICATION_TYPE":"U","EPHEMERIS_TYPE":"0","TIME_SYSTEM":"UTC","PERIOD":"95.593","MEAN_ANOMALY":"318.5379","EPOCH":"2022-12-09T18:22:21.785952","TLE_LINE1":"1 47996U 21024V   22343.76552993 -.00001612  00000-0 -89334-4 0  9997","APOAPSIS":"548.757","FILE":"3685772","RCS_SIZE":"LARGE","BSTAR":"-0.00008933400000","TLE_LINE2":"2 47996  53.0540 125.7478 0002201  41.5777 318.5379 15.06393817 97188","LAUNCH_DATE":"2021-03-24"},{"INCLINATION":"53.0547","REF_FRAME":"TEME","OBJECT_ID":"2021-024W","PERIAPSIS":"546.244","REV_AT_EPOCH":"9606","CENTER_NAME":"EARTH","COUNTRY_CODE":"US","MEAN_ELEMENT_THEORY":"SGP4","ELEMENT_SET_NO":"999","MEAN_MOTION":"15.06407986","MEAN_MOTION_DOT":"0.00002481","DECAY_DATE":null,"ARG_OF_PERICENTER":"66.8043","OBJECT_NAME":"STARLINK-2266","MEAN_MOTION_DDOT":"0.0000000000000","RA_OF_ASC_NODE":"238.4200","OBJECT_TYPE":"PAYLOAD","NORAD_CAT_ID":"47997","MEAN_ANOMALY":"293.3090","TLE_LINE2":"2 47997  53.0547 238.4200 0001365  66.8043 293.3090 15.06407986 96066","BSTAR":"0.00018535000000","LAUNCH_DATE":"2021-03-24","TLE_LINE1":"1 47997U 21024W   22343.09924533  .00002481  00000-0  18535-3 0  9994","APOAPSIS":"548.134","EPOCH":"2022-12-09T02:22:54.796512","FILE":"3685263","RCS_SIZE":"LARGE","SEMIMAJOR_AXIS":"6925.324","GP_ID":"219840469","SITE":"AFETR","PERIOD":"95.592","ECCENTRICITY":"0.00013650","CLASSIFICATION_TYPE":"U","EPHEMERIS_TYPE":"0","TIME_SYSTEM":"UTC"},{"SITE":"AFETR","SEMIMAJOR_AXIS":"6925.386","GP_ID":"219856294","TIME_SYSTEM":"UTC","CLASSIFICATION_TYPE":"U","ECCENTRICITY":"0.00007750","EPHEMERIS_TYPE":"0","PERIOD":"95.593","MEAN_ANOMALY":"273.6330","FILE":"3685773","RCS_SIZE":"LARGE","EPOCH":"2022-12-09T20:05:11.427648","TLE_LINE1":"1 47998U 21024X   22343.83693782 -.00003677  00000-0 -22818-3 0  9995","APOAPSIS":"547.787","LAUNCH_DATE":"2021-03-24","BSTAR":"-0.00022818000000","TLE_LINE2":"2 47998  53.0551 210.3680 0000775  86.4748 273.6330 15.06387868 95992","DECAY_DATE":null,"ARG_OF_PERICENTER":"86.4748","MEAN_MOTION_DOT":"-0.00003677","ELEMENT_SET_NO":"999","MEAN_MOTION":"15.06387868","COUNTRY_CODE":"US","CENTER_NAME":"EARTH","MEAN_ELEMENT_THEORY":"SGP4","RA_OF_ASC_NODE":"210.3680","MEAN_MOTION_DDOT":"0.0000000000000","OBJECT_TYPE":"PAYLOAD","NORAD_CAT_ID":"47998","OBJECT_NAME":"STARLINK-2296","INCLINATION":"53.0551","REF_FRAME":"TEME","REV_AT_EPOCH":"9599","PERIAPSIS":"546.714","OBJECT_ID":"2021-024X"},{"MEAN_ANOMALY":"275.9793","LAUNCH_DATE":"2021-03-24","TLE_LINE2":"2 47999  53.0551 180.0386 0002098  84.1435 275.9793 15.06212282 96410","BSTAR":"-0.00165660000000","RCS_SIZE":"LARGE","FILE":"3685964","APOAPSIS":"549.242","TLE_LINE1":"1 47999U 21024Y   22343.85364034 -.00024747  00000-0 -16566-2 0  9996","EPOCH":"2022-12-09T20:29:14.525376","SEMIMAJOR_AXIS":"6925.924","GP_ID":"219861108","SITE":"AFETR","PERIOD":"95.604","TIME_SYSTEM":"UTC","EPHEMERIS_TYPE":"0","ECCENTRICITY":"0.00020980","CLASSIFICATION_TYPE":"U","REF_FRAME":"TEME","INCLINATION":"53.0551","OBJECT_ID":"2021-024Y","REV_AT_EPOCH":"9641","PERIAPSIS":"546.336","MEAN_MOTION":"15.06212282","ELEMENT_SET_NO":"999","MEAN_ELEMENT_THEORY":"SGP4","COUNTRY_CODE":"US","CENTER_NAME":"EARTH","DECAY_DATE":null,"ARG_OF_PERICENTER":"84.1435","MEAN_MOTION_DOT":"-0.00024747","OBJECT_NAME":"STARLINK-2218","OBJECT_TYPE":"PAYLOAD","NORAD_CAT_ID":"47999","RA_OF_ASC_NODE":"180.0386","MEAN_MOTION_DDOT":"0.0000000000000"},{"INCLINATION":"53.0542","REF_FRAME":"TEME","PERIAPSIS":"546.412","REV_AT_EPOCH":"9705","OBJECT_ID":"2021-024Z","MEAN_MOTION_DOT":"-0.00000889","DECAY_DATE":null,"ARG_OF_PERICENTER":"1.7858","CENTER_NAME":"EARTH","COUNTRY_CODE":"US","MEAN_ELEMENT_THEORY":"SGP4","ELEMENT_SET_NO":"999","MEAN_MOTION":"15.06389326","RA_OF_ASC_NODE":"166.7641","MEAN_MOTION_DDOT":"0.0000000000000","OBJECT_TYPE":"PAYLOAD","NORAD_CAT_ID":"48000","OBJECT_NAME":"STARLINK-2270","MEAN_ANOMALY":"358.3135","TLE_LINE1":"1 48000U 21024Z   22343.51857070 -.00000889  00000-0 -40801-4 0  9992","APOAPSIS":"548.081","EPOCH":"2022-12-09T12:26:44.508480","FILE":"3685263","RCS_SIZE":"LARGE","TLE_LINE2":"2 48000  53.0542 166.7641 0001205   1.7858 358.3135 15.06389326 97053","BSTAR":"-0.00004080100000","LAUNCH_DATE":"2021-03-24","SITE":"AFETR","SEMIMAJOR_AXIS":"6925.381","GP_ID":"219841221","ECCENTRICITY":"0.00012050","CLASSIFICATION_TYPE":"U","EPHEMERIS_TYPE":"0","TIME_SYSTEM":"UTC","PERIOD":"95.593"},{"OBJECT_NAME":"STARLINK-2265","NORAD_CAT_ID":"48002","OBJECT_TYPE":"PAYLOAD","RA_OF_ASC_NODE":"185.5629","MEAN_MOTION_DDOT":"0.0000000000000","MEAN_MOTION":"15.06451020","ELEMENT_SET_NO":"999","MEAN_ELEMENT_THEORY":"SGP4","CENTER_NAME":"EARTH","COUNTRY_CODE":"US","ARG_OF_PERICENTER":"112.0652","DECAY_DATE":null,"MEAN_MOTION_DOT":"0.00003903","OBJECT_ID":"2021-024AB","REV_AT_EPOCH":"9633","PERIAPSIS":"546.109","REF_FRAME":"TEME","INCLINATION":"53.0548","PERIOD":"95.589","TIME_SYSTEM":"UTC","EPHEMERIS_TYPE":"0","CLASSIFICATION_TYPE":"U","ECCENTRICITY":"0.00013690","GP_ID":"219856862","SEMIMAJOR_AXIS":"6925.192","SITE":"AFETR","LAUNCH_DATE":"2021-03-24","TLE_LINE2":"2 48002  53.0548 185.5629 0001369 112.0652 248.0483 15.06451020 96337","BSTAR":"0.00028041000000","RCS_SIZE":"LARGE","FILE":"3685786","TLE_LINE1":"1 48002U 21024AB  22343.81156663  .00003903  00000-0  28041-3 0  9996","EPOCH":"2022-12-09T19:28:39.356832","APOAPSIS":"548.005","MEAN_ANOMALY":"248.0483"},{"REF_FRAME":"TEME","INCLINATION":"53.0543","PERIAPSIS":"546.182","REV_AT_EPOCH":"9528","OBJECT_ID":"2021-024AC","MEAN_MOTION_DOT":"-0.00000731","DECAY_DATE":null,"ARG_OF_PERICENTER":"63.0542","MEAN_ELEMENT_THEORY":"SGP4","CENTER_NAME":"EARTH","COUNTRY_CODE":"US","ELEMENT_SET_NO":"999","MEAN_MOTION":"15.06386515","OBJECT_TYPE":"PAYLOAD","NORAD_CAT_ID":"48003","MEAN_MOTION_DDOT":"0.0000000000000","RA_OF_ASC_NODE":"260.2972","OBJECT_NAME":"STARLINK-2263","MEAN_ANOMALY":"297.0605","TLE_LINE1":"1 48003U 21024AC  22343.79913181 -.00000731  00000-0 -30203-4 0  9992","APOAPSIS":"548.328","EPOCH":"2022-12-09T19:10:44.988384","RCS_SIZE":"LARGE","FILE":"3685786","TLE_LINE2":"2 48003  53.0543 260.2972 0001549  63.0542 297.0605 15.06386515 95287","BSTAR":"-0.00003020300000","LAUNCH_DATE":"2021-03-24","SITE":"AFETR","GP_ID":"219856865","SEMIMAJOR_AXIS":"6925.390","EPHEMERIS_TYPE":"0","CLASSIFICATION_TYPE":"U","ECCENTRICITY":"0.00015490","TIME_SYSTEM":"UTC","PERIOD":"95.593"}];
